CCSDS_OEM_VERS = 1.0
CREATION_DATE  = 2017-05-11T11:21:31
ORIGINATOR     = GMAT USER

META_START
OBJECT_NAME          = MOPSSat_alt_35785_km_RAAN_90_147
OBJECT_ID            = SatId
CENTER_NAME          = Earth
REF_FRAME            = EME2000
TIME_SYSTEM          = UTC
START_TIME           = 2017-01-01T00:00:00.000
USEABLE_START_TIME   = 2017-01-01T00:00:00.000
USEABLE_STOP_TIME    = 2017-01-02T00:00:00.000
STOP_TIME            = 2017-01-02T00:00:00.000
INTERPOLATION        = Lagrange
INTERPOLATION_DEGREE = 7 
META_STOP


                                                                                   

2017-01-01T09:28:20.000  -1.556855309818865e+04  -5.919797277551729e+04   8.623560159218929e-02   1.659036962459061e+00  -9.032997681905651e-01  -3.454158485178199e-05
2017-01-01T09:28:30.000  -1.555196137565672e+04  -5.920700062906385e+04   8.588997942037772e-02   1.659307454230956e+00  -9.022709356086857e-01  -3.458285084220712e-05
2017-01-01T09:28:40.000  -1.553536695026442e+04  -5.921601819446588e+04   8.554394453560271e-02   1.659577597944601e+00  -9.012421737392680e-01  -3.462412876405477e-05
2017-01-01T09:28:50.000  -1.551876982532325e+04  -5.922502547252150e+04   8.519749681508343e-02   1.659847393768834e+00  -9.002134824936627e-01  -3.466541860890663e-05
2017-01-01T09:29:00.000  -1.550217000418101e+04  -5.923402246400731e+04   8.485063613691736e-02   1.660116841871615e+00  -8.991848617855697e-01  -3.470672036824517e-05
2017-01-01T09:29:10.000  -1.548556749013722e+04  -5.924300916972466e+04   8.450336237832369e-02   1.660385942421420e+00  -8.981563115257843e-01  -3.474803403366231e-05
2017-01-01T09:29:20.000  -1.546896228665777e+04  -5.925198559038187e+04   8.415567542008404e-02   1.660654695583700e+00  -8.971278316355316e-01  -3.478935959633089e-05
2017-01-01T09:29:30.000  -1.545235439721565e+04  -5.926095172668197e+04   8.380757514326191e-02   1.660923101523526e+00  -8.960994220365628e-01  -3.483069704739530e-05
2017-01-01T09:29:40.000  -1.543574382529083e+04  -5.926990757932239e+04   8.345906142917989e-02   1.661191160405561e+00  -8.950710826511631e-01  -3.487204637797388e-05
2017-01-01T09:29:50.000  -1.541913057453031e+04  -5.927885314890986e+04   8.311013416282544e-02   1.661458872391537e+00  -8.940428134120272e-01  -3.491340757875497e-05
2017-01-01T09:30:00.000  -1.540251464853265e+04  -5.928778843607544e+04   8.276079322828553e-02   1.661726237643680e+00  -8.930146142489516e-01  -3.495478064053866e-05
2017-01-01T09:30:10.000  -1.538589605093286e+04  -5.929671344142893e+04   8.241103851053812e-02   1.661993256323353e+00  -8.919864850940786e-01  -3.499616555402377e-05
2017-01-01T09:30:20.000  -1.536927478502734e+04  -5.930562816576042e+04   8.206086988756220e-02   1.662259928597086e+00  -8.909584258586940e-01  -3.503756231074655e-05
2017-01-01T09:30:30.000  -1.535265085414887e+04  -5.931453260983884e+04   8.171028723822382e-02   1.662526254630542e+00  -8.899304364564300e-01  -3.507897090214197e-05
2017-01-01T09:30:40.000  -1.533602426158192e+04  -5.932342677445742e+04   8.135929044050111e-02   1.662792234589892e+00  -8.889025167980193e-01  -3.512039131975654e-05
2017-01-01T09:30:50.000  -1.531939501077759e+04  -5.933231066031739e+04   8.100787937597251e-02   1.663057868638318e+00  -8.878746668046155e-01  -3.516182355470857e-05
2017-01-01T09:31:00.000  -1.530276310519410e+04  -5.934118426811484e+04   8.065605392650085e-02   1.663323156938623e+00  -8.868468863979004e-01  -3.520326759808958e-05
2017-01-01T09:31:10.000  -1.528612854829673e+04  -5.935004759854006e+04   8.030381397421056e-02   1.663588099653209e+00  -8.858191755000887e-01  -3.524472344096328e-05
2017-01-01T09:31:20.000  -1.526949134371800e+04  -5.935890065219384e+04   7.995115940492933e-02   1.663852696941581e+00  -8.847915340437997e-01  -3.528619107396993e-05
2017-01-01T09:31:30.000  -1.525285149504199e+04  -5.936774342970081e+04   7.959809010357435e-02   1.664116948963728e+00  -8.837639619587555e-01  -3.532767048786018e-05
2017-01-01T09:31:40.000  -1.523620900589088e+04  -5.937657593166389e+04   7.924460595599757e-02   1.664380855878764e+00  -8.827364591771231e-01  -3.536916167328067e-05
2017-01-01T09:31:50.000  -1.521956387954312e+04  -5.938539815886679e+04   7.889070684087608e-02   1.664644417850978e+00  -8.817090256099385e-01  -3.541066462172203e-05
2017-01-01T09:32:00.000  -1.520291611931623e+04  -5.939421011207085e+04   7.853639263783883e-02   1.664907635043766e+00  -8.806816611707408e-01  -3.545217932456840e-05
2017-01-01T09:32:10.000  -1.518626572846796e+04  -5.940301179206751e+04   7.818166322537277e-02   1.665170507621200e+00  -8.796543657694733e-01  -3.549370577334267e-05
2017-01-01T09:32:20.000  -1.516961271046194e+04  -5.941180319953673e+04   7.782651848644026e-02   1.665433035743787e+00  -8.786271393288919e-01  -3.553524395904701e-05
2017-01-01T09:32:30.000  -1.515295706874851e+04  -5.942058433516402e+04   7.747095830385126e-02   1.665695219571984e+00  -8.775999817710232e-01  -3.557679387270670e-05
2017-01-01T09:32:40.000  -1.513629880681367e+04  -5.942935519961430e+04   7.711498256129409e-02   1.665957059265400e+00  -8.765728930201865e-01  -3.561835550524868e-05
2017-01-01T09:32:50.000  -1.511963792816592e+04  -5.943811579353960e+04   7.675859114308278e-02   1.666218554983044e+00  -8.755458730021686e-01  -3.565992884753395e-05
2017-01-01T09:33:00.000  -1.510297443631956e+04  -5.944686611758733e+04   7.640178393377683e-02   1.666479706883555e+00  -8.745189216432039e-01  -3.570151389039922e-05
2017-01-01T09:33:10.000  -1.508630833478863e+04  -5.945560617240336e+04   7.604456081805640e-02   1.666740515125309e+00  -8.734920388696050e-01  -3.574311062467232e-05
2017-01-01T09:33:20.000  -1.506963962702749e+04  -5.946433595866368e+04   7.568692167945829e-02   1.667000979867352e+00  -8.724652246040877e-01  -3.578471904131773e-05
2017-01-01T09:33:30.000  -1.505296831647036e+04  -5.947305547705315e+04   7.532886640121048e-02   1.667261101268776e+00  -8.714384787682218e-01  -3.582633913134106e-05
2017-01-01T09:33:40.000  -1.503629440653145e+04  -5.948176472826557e+04   7.497039486623601e-02   1.667520879488713e+00  -8.704118012824307e-01  -3.586797088578765e-05
2017-01-01T09:33:50.000  -1.501961790056497e+04  -5.949046371302407e+04   7.461150695628233e-02   1.667780314686948e+00  -8.693851920635463e-01  -3.590961429584651e-05
2017-01-01T09:34:00.000  -1.500293880192499e+04  -5.949915243205022e+04   7.425220255321517e-02   1.668039407022994e+00  -8.683586510284788e-01  -3.595126935269680e-05
2017-01-01T09:34:10.000  -1.498625711397134e+04  -5.950783088606101e+04   7.389248153915172e-02   1.668298156656008e+00  -8.673321780945865e-01  -3.599293604749426e-05
2017-01-01T09:34:20.000  -1.496957284008617e+04  -5.951649907575958e+04   7.353234379679240e-02   1.668556563744505e+00  -8.663057731807017e-01  -3.603461437132573e-05
2017-01-01T09:34:30.000  -1.495288598368743e+04  -5.952515700182898e+04   7.317178920974041e-02   1.668814628446185e+00  -8.652794362079467e-01  -3.607630431517971e-05
2017-01-01T09:34:40.000  -1.493619654817968e+04  -5.953380466495746e+04   7.281081766142862e-02   1.669072350918676e+00  -8.642531670967177e-01  -3.611800587006751e-05
2017-01-01T09:34:50.000  -1.491950453717436e+04  -5.954244206572534e+04   7.244942903991697e-02   1.669329731316173e+00  -8.632269657801993e-01  -3.615971902647753e-05
2017-01-01T09:35:00.000  -1.490280995422298e+04  -5.955106920474232e+04   7.208762323208825e-02   1.669586769793524e+00  -8.622008321879870e-01  -3.620144377503734e-05
2017-01-01T09:35:10.000  -1.488611280291628e+04  -5.955968608259621e+04   7.172540012580199e-02   1.669843466504703e+00  -8.611747662521768e-01  -3.624318010626759e-05
2017-01-01T09:35:20.000  -1.486941308650024e+04  -5.956829270005130e+04   7.136275960156739e-02   1.670099821608724e+00  -8.601487678837634e-01  -3.628492801153711e-05
2017-01-01T09:35:30.000  -1.485271080825907e+04  -5.957688905785051e+04   7.099970154084544e-02   1.670355835263738e+00  -8.591228369961843e-01  -3.632668748211032e-05
2017-01-01T09:35:40.000  -1.483600597142853e+04  -5.958547515676035e+04   7.063622582417589e-02   1.670611507628385e+00  -8.580969734999833e-01  -3.636845850936220e-05
2017-01-01T09:35:50.000  -1.481929857941188e+04  -5.959405099745837e+04   7.027233233582673e-02   1.670866838858425e+00  -8.570711773161072e-01  -3.641024108424368e-05
2017-01-01T09:36:00.000  -1.480258863561963e+04  -5.960261658061705e+04   6.990802096035871e-02   1.671121829109254e+00  -8.560454483660299e-01  -3.645203519767688e-05
2017-01-01T09:36:10.000  -1.478587614346943e+04  -5.961117190690337e+04   6.954329158260217e-02   1.671376478535879e+00  -8.550197865717591e-01  -3.649384084055744e-05
2017-01-01T09:36:20.000  -1.476916110654706e+04  -5.961971697689788e+04   6.917814409121960e-02   1.671630787290523e+00  -8.539941918656869e-01  -3.653565800334621e-05
2017-01-01T09:36:30.000  -1.475244352838970e+04  -5.962825179120411e+04   6.881257837392935e-02   1.671884755525869e+00  -8.529686641773168e-01  -3.657748667661692e-05
2017-01-01T09:36:40.000  -1.473572341257128e+04  -5.963677635040531e+04   6.844659431938023e-02   1.672138383393782e+00  -8.519432034384925e-01  -3.661932685084084e-05
2017-01-01T09:36:50.000  -1.471900076232516e+04  -5.964529065525702e+04   6.808019180889517e-02   1.672391671051028e+00  -8.509178095602590e-01  -3.666117851733561e-05
2017-01-01T09:37:00.000  -1.470227558092145e+04  -5.965379470649432e+04   6.771337072472379e-02   1.672644618653552e+00  -8.498924824560024e-01  -3.670304166731653e-05
2017-01-01T09:37:10.000  -1.468554787158171e+04  -5.966228850487566e+04   6.734613094818412e-02   1.672897226357773e+00  -8.488672220362176e-01  -3.674491629211141e-05
2017-01-01T09:37:20.000  -1.466881763769527e+04  -5.967077205107149e+04   6.697847236436109e-02   1.673149494317271e+00  -8.478420282217954e-01  -3.678680238261513e-05
